{"type": "FeatureCollection", "features": [ {"type": "Feature", "properties": {"norad_id": 35045, "name": "COSMOS 2251 DEB", "group": "cosmos-2251-debris", "lat": 48.07482617025188, "lon": 62.73178195342537, "alt_km": 964.3762051271424, "timestamp": "2025-12-17T19:34:08.433558+00:00", "meta": {"OBJECT_NAME": "COSMOS 2251 DEB", "OBJECT_ID": "1993-036AHJ", "EPOCH": "2025-12-15T10:44:56.343840", "MEAN_MOTION": 14.00391051, "ECCENTRICITY": 0.01837483, "INCLINATION": 73.7197, "RA_OF_ASC_NODE": 47.9208, "ARG_OF_PERICENTER": 289.5539, "MEAN_ANOMALY": 68.5833, "EPHEMERIS_TYPE": 0, "CLASSIFICATION_TYPE": "U", "NORAD_CAT_ID": 35045, "ELEMENT_SET_NO": 999, "REV_AT_EPOCH": 84681, "BSTAR": 0.00065789188, "MEAN_MOTION_DOT": 1.1e-05, "MEAN_MOTION_DDOT": 0}, "tle": {"line1": "1 35045U 93036AHJ 25349.44787435  .00001100  00000+0  65789-3 0  9992", "line2": "2 35045  73.7197  47.9208 0183748 289.5539  68.5833 14.00391051846819"}}, "geometry": {"type": "Point", "coordinates": [62.73178195342537, 48.07482617025188]}}, {"type": "Feature", "properties": {"norad_id": 35060, "name": "COSMOS 2251 DEB", "group": "cosmos-2251-debris", "lat": -11.26880193422072, "lon": -128.33993412635576, "alt_km": 745.4871060939522, "timestamp": "2025-12-17T19:34:08.433568+00:00", "meta": {"OBJECT_NAME": "COSMOS 2251 DEB", "OBJECT_ID": "1993-036AHP", "EPOCH": "2025-12-12T09:42:56.373696", "MEAN_MOTION": 14.4159863, "ECCENTRICITY": 0.00185395, "INCLINATION": 74.0367, "RA_OF_ASC_NODE": 244.9485, "ARG_OF_PERICENTER": 331.3845, "MEAN_ANOMALY": 28.6291, "EPHEMERIS_TYPE": 0, "CLASSIFICATION_TYPE": "U", "NORAD_CAT_ID": 35060, "ELEMENT_SET_NO": 999, "REV_AT_EPOCH": 87237, "BSTAR": 0.00047553365, "MEAN_MOTION_DOT": 1.524e-05, "MEAN_MOTION_DDOT": 0}, "tle": {"line1": "1 35060U 93036AHP 25346.40481914  .00001524  00000+0  47553-3 0  9994", "line2": "2 35060  74.0367 244.9485 0018539 331.3845  28.6291 14.41598630872378"}}, "geometry": {"type": "Point", "coordinates": [-128.33993412635576, -11.26880193422072]}}, {"type": "Feature", "properties": {"norad_id": 35061, "name": "COSMOS 2251 DEB", "group": "cosmos-2251-debris", "lat": -8.606768427869572, "lon": -66.55919804051236, "alt_km": 655.3222321932572, "timestamp": "2025-12-17T19:34:08.433578+00:00", "meta": {"OBJECT_NAME": "COSMOS 2251 DEB", "OBJECT_ID": "1993-036AHQ", "EPOCH": "2025-12-16T02:43:00.799680", "MEAN_MOTION": 14.67857584, "ECCENTRICITY": 0.00392707, "INCLINATION": 74.0455, "RA_OF_ASC_NODE": 299.2082, "ARG_OF_PERICENTER": 49.0905, "MEAN_ANOMALY": 311.3654, "EPHEMERIS_TYPE": 0, "CLASSIFICATION_TYPE": "U", "NORAD_CAT_ID": 35061, "ELEMENT_SET_NO": 999, "REV_AT_EPOCH": 88624, "BSTAR": 0.00056925781, "MEAN_MOTION_DOT": 3.26e-05, "MEAN_MOTION_DDOT": 0}, "tle": {"line1": "1 35061U 93036AHQ 25350.11320370  .00003260  00000+0  56926-3 0  9999", "line2": "2 35061  74.0455 299.2082 0039270  49.0905 311.3654 14.67857584886248"}}, "geometry": {"type": "Point", "coordinates": [-66.55919804051236, -8.606768427869572]}}, {"type": "Feature", "properties": {"norad_id": 35062, "name": "COSMOS 2251 DEB", "group": "cosmos-2251-debris", "lat": -49.749964410362644, "lon": 64.44381538932014, "alt_km": 886.1687274242486, "timestamp": "2025-12-17T19:34:08.433588+00:00", "meta": {"OBJECT_NAME": "COSMOS 2251 DEB", "OBJECT_ID": "1993-036AHR", "EPOCH": "2025-12-10T15:42:45.436320", "MEAN_MOTION": 14.22906612, "ECCENTRICITY": 0.01275957, "INCLINATION": 74.0784, "RA_OF_ASC_NODE": 96.9836, "ARG_OF_PERICENTER": 97.3041, "MEAN_ANOMALY": 264.2628, "EPHEMERIS_TYPE": 0, "CLASSIFICATION_TYPE": "U", "NORAD_CAT_ID": 35062, "ELEMENT_SET_NO": 999, "REV_AT_EPOCH": 85469, "BSTAR": 0.0028656551, "MEAN_MOTION_DOT": 6.986e-05, "MEAN_MOTION_DDOT": 0}, "tle": {"line1": "1 35062U 93036AHR 25344.65469255  .00006986  00000+0  28657-2 0  9995", "line2": "2 35062  74.0784  96.9836 0127595  97.3041 264.2628 14.22906612854697"}}, "geometry": {"type": "Point", "coordinates": [64.44381538932014, -49.749964410362644]}}, {"type": "Feature", "properties": {"norad_id": 35065, "name": "COSMOS 2251 DEB", "group": "cosmos-2251-debris", "lat": 48.75331700541999, "lon": -156.06190172540937, "alt_km": 737.8706126466213, "timestamp": "2025-12-17T19:34:08.433598+00:00", "meta": {"OBJECT_NAME": "COSMOS 2251 DEB", "OBJECT_ID": "1993-036AHU", "EPOCH": "2025-12-15T07:32:45.576096", "MEAN_MOTION": 14.45733893, "ECCENTRICITY": 0.00199052, "INCLINATION": 74.019, "RA_OF_ASC_NODE": 189.5298, "ARG_OF_PERICENTER": 314.3681, "MEAN_ANOMALY": 45.5846, "EPHEMERIS_TYPE": 0, "CLASSIFICATION_TYPE": "U", "NORAD_CAT_ID": 35065, "ELEMENT_SET_NO": 999, "REV_AT_EPOCH": 68388, "BSTAR": 0.00034144119, "MEAN_MOTION_DOT": 1.186e-05, "MEAN_MOTION_DDOT": 0}, "tle": {"line1": "1 35065U 93036AHU 25349.31441639  .00001186  00000+0  34144-3 0  9998", "line2": "2 35065  74.0190 189.5298 0019905 314.3681  45.5846 14.45733893683886"}}, "geometry": {"type": "Point", "coordinates": [-156.06190172540937, 48.75331700541999]}}, {"type": "Feature", "properties": {"norad_id": 35071, "name": "COSMOS 2251 DEB", "group": "cosmos-2251-debris", "lat": -61.024371806304316, "lon": 14.368027082178463, "alt_km": 609.6670547544727, "timestamp": "2025-12-17T19:34:08.433608+00:00", "meta": {"OBJECT_NAME": "COSMOS 2251 DEB", "OBJECT_ID": "1993-036AJA", "EPOCH": "2025-12-15T18:34:31.974816", "MEAN_MOTION": 15.0351885, "ECCENTRICITY": 0.00682233, "INCLINATION": 73.9308, "RA_OF_ASC_NODE": 167.1964, "ARG_OF_PERICENTER": 62.71, "MEAN_ANOMALY": 298.1014, "EPHEMERIS_TYPE": 0, "CLASSIFICATION_TYPE": "U", "NORAD_CAT_ID": 35071, "ELEMENT_SET_NO": 999, "REV_AT_EPOCH": 67582, "BSTAR": 0.00048026378, "MEAN_MOTION_DOT": 6.858e-05, "MEAN_MOTION_DDOT": 0}, "tle": {"line1": "1 35071U 93036AJA 25349.77398119  .00006858  00000+0  48026-3 0  9994", "line2": "2 35071  73.9308 167.1964 0068223  62.7100 298.1014 15.03518850675828"}}, "geometry": {"type": "Point", "coordinates": [14.368027082178463, -61.024371806304316]}}, {"type": "Feature", "properties": {"norad_id": 35073, "name": "COSMOS 2251 DEB", "group": "cosmos-2251-debris", "lat": -53.02104103200086, "lon": -62.17313945636683, "alt_km": 574.028251719642, "timestamp": "2025-12-17T19:34:08.433618+00:00", "meta": {"OBJECT_NAME": "COSMOS 2251 DEB", "OBJECT_ID": "1993-036AJC", "EPOCH": "2025-12-15T05:25:47.046144", "MEAN_MOTION": 15.00831653, "ECCENTRICITY": 0.00109074, "INCLINATION": 73.9997, "RA_OF_ASC_NODE": 325.5063, "ARG_OF_PERICENTER": 67.0121, "MEAN_ANOMALY": 293.2216, "EPHEMERIS_TYPE": 0, "CLASSIFICATION_TYPE": "U", "NORAD_CAT_ID": 35073, "ELEMENT_SET_NO": 999, "REV_AT_EPOCH": 67516, "BSTAR": 0.001951072, "MEAN_MOTION_DOT": 0.00024882, "MEAN_MOTION_DDOT": 0}, "tle": {"line1": "1 35073U 93036AJC 25349.22623896  .00024882  00000+0  19511-2 0  9992", "line2": "2 35073  73.9997 325.5063 0010907  67.0121 293.2216 15.00831653675164"}}, "geometry": {"type": "Point", "coordinates": [-62.17313945636683, -53.02104103200086]}}, {"type": "Feature", "properties": {"norad_id": 35284, "name": "COSMOS 2251 DEB", "group": "cosmos-2251-debris", "lat": -28.635651443633318, "lon": -113.90501337414635, "alt_km": 757.4555811377095, "timestamp": "2025-12-17T19:34:08.433628+00:00", "meta": {"OBJECT_NAME": "COSMOS 2251 DEB", "OBJECT_ID": "1993-036AJN", "EPOCH": "2025-12-16T00:22:37.828704", "MEAN_MOTION": 14.38321694, "ECCENTRICITY": 0.00169136, "INCLINATION": 74.0489, "RA_OF_ASC_NODE": 258.3918, "ARG_OF_PERICENTER": 334.2537, "MEAN_ANOMALY": 41.1453, "EPHEMERIS_TYPE": 0, "CLASSIFICATION_TYPE": "U", "NORAD_CAT_ID": 35284, "ELEMENT_SET_NO": 999, "REV_AT_EPOCH": 65573, "BSTAR": 0.00015700211, "MEAN_MOTION_DOT": 4.52e-06, "MEAN_MOTION_DDOT": 0}, "tle": {"line1": "1 35284U 93036AJN 25350.01571561  .00000452  00000+0  15700-3 0  9990", "line2": "2 35284  74.0489 258.3918 0016913 334.2537  41.1453 14.38321694655734"}}, "geometry": {"type": "Point", "coordinates": [-113.90501337414635, -28.635651443633318]}}, {"type": "Feature", "properties": {"norad_id": 35287, "name": "COSMOS 2251 DEB", "group": "cosmos-2251-debris", "lat": 64.10654273254632, "lon": 50.659847330038616, "alt_km": 767.841223443038, "timestamp": "2025-12-17T19:34:08.433638+00:00", "meta": {"OBJECT_NAME": "COSMOS 2251 DEB", "OBJECT_ID": "1993-036AJR", "EPOCH": "2025-12-17T00:44:21.729120", "MEAN_MOTION": 14.36380243, "ECCENTRICITY": 0.00177628, "INCLINATION": 74.0304, "RA_OF_ASC_NODE": 268.2508, "ARG_OF_PERICENTER": 3.9403, "MEAN_ANOMALY": 11.1296, "EPHEMERIS_TYPE": 0, "CLASSIFICATION_TYPE": "U", "NORAD_CAT_ID": 35287, "ELEMENT_SET_NO": 999, "REV_AT_EPOCH": 86954, "BSTAR": 0.00012333812, "MEAN_MOTION_DOT": 3.35e-06, "MEAN_MOTION_DDOT": 0}, "tle": {"line1": "1 35287U 93036AJR 25351.03080705  .00000335  00000+0  12334-3 0  9991", "line2": "2 35287  74.0304 268.2508 0017762   3.9403  11.1296 14.36380243869544"}}, "geometry": {"type": "Point", "coordinates": [50.659847330038616, 64.10654273254632]}}, {"type": "Feature", "properties": {"norad_id": 35288, "name": "COSMOS 2251 DEB", "group": "cosmos-2251-debris", "lat": 66.15055661460944, "lon": 45.98121989022563, "alt_km": 695.5308827422923, "timestamp": "2025-12-17T19:34:08.433648+00:00", "meta": {"OBJECT_NAME": "COSMOS 2251 DEB", "OBJECT_ID": "1993-036AJS", "EPOCH": "2025-12-15T08:15:30.303072", "MEAN_MOTION": 14.65486547, "ECCENTRICITY": 0.00393272, "INCLINATION": 73.9514, "RA_OF_ASC_NODE": 10.134, "ARG_OF_PERICENTER": 243.2869, "MEAN_ANOMALY": 116.4271, "EPHEMERIS_TYPE": 0, "CLASSIFICATION_TYPE": "U", "NORAD_CAT_ID": 35288, "ELEMENT_SET_NO": 999, "REV_AT_EPOCH": 87916, "BSTAR": 0.00067125427, "MEAN_MOTION_DOT": 3.647e-05, "MEAN_MOTION_DDOT": 0}, "tle": {"line1": "1 35288U 93036AJS 25349.34410073  .00003647  00000+0  67125-3 0  9995", "line2": "2 35288  73.9514  10.1340 0039327 243.2869 116.4271 14.65486547879167"}}, "geometry": {"type": "Point", "coordinates": [45.98121989022563, 66.15055661460944]}}]}